PROBA-1                 
1 26958U 01049B   26087.54698039  .00004936  00000+0  32125-3 0  9998
2 26958  97.9636  93.2731 0056386  36.8747 323.6336 15.07145338331471
CUTE-1 (CO-55)          
1 27844U 03031E   26087.60183227  .00000364  00000+0  17671-3 0  9991
2 27844  98.6773  97.1664 0010630  63.2867 296.9399 14.24281335180203
CUBESAT XI-IV (CO-57)   
1 27848U 03031J   26087.55006450  .00000301  00000+0  15152-3 0  9994
2 27848  98.6807  96.8929 0010614  79.7322 280.5053 14.23574119179900
APRIZESAT 4             
1 35684U 09041D   26087.47028637  .00000940  00000+0  11890-3 0  9994
2 35684  98.1454 161.1772 0042514 222.0549 137.7398 14.83745375899397
APRIZESAT 3             
1 35686U 09041F   26087.37309003  .00001777  00000+0  15866-3 0  9990
2 35686  98.1943 236.7916 0061358 335.1541  24.6727 14.95968270904296
PROBA-2                 
1 36037U 09059B   26087.56552203  .00000277  00000+0  75051-4 0  9990
2 36037  98.2444 272.0362 0013517 164.7230 195.4378 14.54803586869806
APRIZESAT 5             
1 37792U 11044E   26087.53948342  .00001200  00000+0  15941-3 0  9994
2 37792  98.2414  18.3253 0050967 262.3784  97.1637 14.80910281786850
APRIZESAT 6             
1 37793U 11044F   26087.32874101  .00001022  00000+0  15161-3 0  9999
2 37793  98.2404 356.1672 0042955 346.5000 128.6483 14.76792413785210
PROBA-V                 
1 39159U 13021A   26087.50205228  .00000110  00000+0  66251-4 0  9996
2 39159  98.3533  70.1176 0004565  24.7094 335.4303 14.23578699669633
APRIZESAT 7             
1 39416U 13066A   26087.37811507  .00001535  00000+0  15765-3 0  9994
2 39416  97.7627  41.8107 0037308 117.9955 242.5047 14.91342967669182
APRIZESAT 8             
1 39425U 13066K   26087.42312691  .00001188  00000+0  13485-3 0  9991
2 39425  97.8144  36.0661 0045717 189.9031 170.1289 14.87472452667668
BUGSAT-1 (TITA)         
1 40014U 14033E   26087.59891337  .00009166  00000+0  49282-3 0  9997
2 40014  98.0409 175.4998 0029800  96.1036 264.3592 15.14741458643631
SAUDISAT 4              
1 40016U 14033G   26087.36556123  .00000785  00000+0  11042-3 0  9996
2 40016  97.7452 236.3539 0044274 338.1270  21.8051 14.79421495634122
APRIZESAT 9             
1 40018U 14033J   26087.63892153  .00000895  00000+0  13859-3 0  9994
2 40018  97.8921 222.8695 0067621  99.1991 261.6875 14.74112734631699
APRIZESAT 10            
1 40019U 14033K   26087.58025593  .00000928  00000+0  15293-3 0  9996
2 40019  97.9513 216.4019 0079237 170.2671 190.0094 14.70787328630408
TECHDEMOSAT-1 (TDS-1)   
1 40076U 14037H   26087.52140508  .00010391  00000+0  60981-3 0  9990
2 40076  98.3789  71.8406 0006614 165.2924 194.8498 15.11944494636038
