[{"OBJECT_NAME":"PROBA-1","OBJECT_ID":"2001-049B","EPOCH":"2026-03-28T13:07:39.105696","MEAN_MOTION":15.07145338,"ECCENTRICITY":0.00563861,"INCLINATION":97.9636,"RA_OF_ASC_NODE":93.2731,"ARG_OF_PERICENTER":36.8747,"MEAN_ANOMALY":323.6336,"EPHEMERIS_TYPE":0,"CLASSIFICATION_TYPE":"U","NORAD_CAT_ID":26958,"ELEMENT_SET_NO":999,"REV_AT_EPOCH":33147,"BSTAR":0.00032124788,"MEAN_MOTION_DOT":4.936e-5,"MEAN_MOTION_DDOT":0},{"OBJECT_NAME":"CUTE-1 (CO-55)","OBJECT_ID":"2003-031E","EPOCH":"2026-03-28T14:26:38.308128","MEAN_MOTION":14.24281335,"ECCENTRICITY":0.00106301,"INCLINATION":98.6773,"RA_OF_ASC_NODE":97.1664,"ARG_OF_PERICENTER":63.2867,"MEAN_ANOMALY":296.9399,"EPHEMERIS_TYPE":0,"CLASSIFICATION_TYPE":"U","NORAD_CAT_ID":27844,"ELEMENT_SET_NO":999,"REV_AT_EPOCH":18020,"BSTAR":0.00017670909,"MEAN_MOTION_DOT":3.64e-6,"MEAN_MOTION_DDOT":0},{"OBJECT_NAME":"CUBESAT XI-IV (CO-57)","OBJECT_ID":"2003-031J","EPOCH":"2026-03-28T13:12:05.572800","MEAN_MOTION":14.23574119,"ECCENTRICITY":0.00106143,"INCLINATION":98.6807,"RA_OF_ASC_NODE":96.8929,"ARG_OF_PERICENTER":79.7322,"MEAN_ANOMALY":280.5053,"EPHEMERIS_TYPE":0,"CLASSIFICATION_TYPE":"U","NORAD_CAT_ID":27848,"ELEMENT_SET_NO":999,"REV_AT_EPOCH":17990,"BSTAR":0.00015151518,"MEAN_MOTION_DOT":3.01e-6,"MEAN_MOTION_DDOT":0},{"OBJECT_NAME":"APRIZESAT 4","OBJECT_ID":"2009-041D","EPOCH":"2026-03-28T11:17:12.742368","MEAN_MOTION":14.83745375,"ECCENTRICITY":0.00425145,"INCLINATION":98.1454,"RA_OF_ASC_NODE":161.1772,"ARG_OF_PERICENTER":222.0549,"MEAN_ANOMALY":137.7398,"EPHEMERIS_TYPE":0,"CLASSIFICATION_TYPE":"U","NORAD_CAT_ID":35684,"ELEMENT_SET_NO":999,"REV_AT_EPOCH":89939,"BSTAR":0.00011890102,"MEAN_MOTION_DOT":9.4e-6,"MEAN_MOTION_DDOT":0},{"OBJECT_NAME":"APRIZESAT 3","OBJECT_ID":"2009-041F","EPOCH":"2026-03-28T08:57:14.978592","MEAN_MOTION":14.9596827,"ECCENTRICITY":0.00613585,"INCLINATION":98.1943,"RA_OF_ASC_NODE":236.7916,"ARG_OF_PERICENTER":335.1541,"MEAN_ANOMALY":24.6727,"EPHEMERIS_TYPE":0,"CLASSIFICATION_TYPE":"U","NORAD_CAT_ID":35686,"ELEMENT_SET_NO":999,"REV_AT_EPOCH":90429,"BSTAR":0.00015865531,"MEAN_MOTION_DOT":1.777e-5,"MEAN_MOTION_DDOT":0},{"OBJECT_NAME":"PROBA-2","OBJECT_ID":"2009-059B","EPOCH":"2026-03-28T13:34:21.103392","MEAN_MOTION":14.54803586,"ECCENTRICITY":0.00135175,"INCLINATION":98.2444,"RA_OF_ASC_NODE":272.0362,"ARG_OF_PERICENTER":164.723,"MEAN_ANOMALY":195.4378,"EPHEMERIS_TYPE":0,"CLASSIFICATION_TYPE":"U","NORAD_CAT_ID":36037,"ELEMENT_SET_NO":999,"REV_AT_EPOCH":86980,"BSTAR":7.5051149e-5,"MEAN_MOTION_DOT":2.77e-6,"MEAN_MOTION_DDOT":0},{"OBJECT_NAME":"APRIZESAT 5","OBJECT_ID":"2011-044E","EPOCH":"2026-03-28T12:56:51.367488","MEAN_MOTION":14.80910281,"ECCENTRICITY":0.00509675,"INCLINATION":98.2414,"RA_OF_ASC_NODE":18.3253,"ARG_OF_PERICENTER":262.3784,"MEAN_ANOMALY":97.1637,"EPHEMERIS_TYPE":0,"CLASSIFICATION_TYPE":"U","NORAD_CAT_ID":37792,"ELEMENT_SET_NO":999,"REV_AT_EPOCH":78685,"BSTAR":0.00015940807,"MEAN_MOTION_DOT":1.2e-5,"MEAN_MOTION_DDOT":0},{"OBJECT_NAME":"APRIZESAT 6","OBJECT_ID":"2011-044F","EPOCH":"2026-03-28T07:53:23.223264","MEAN_MOTION":14.76792413,"ECCENTRICITY":0.00429552,"INCLINATION":98.2404,"RA_OF_ASC_NODE":356.1672,"ARG_OF_PERICENTER":346.5,"MEAN_ANOMALY":128.6483,"EPHEMERIS_TYPE":0,"CLASSIFICATION_TYPE":"U","NORAD_CAT_ID":37793,"ELEMENT_SET_NO":999,"REV_AT_EPOCH":78521,"BSTAR":0.00015161206,"MEAN_MOTION_DOT":1.022e-5,"MEAN_MOTION_DDOT":0},{"OBJECT_NAME":"PROBA-V","OBJECT_ID":"2013-021A","EPOCH":"2026-03-28T12:02:57.316992","MEAN_MOTION":14.23578699,"ECCENTRICITY":0.0004565,"INCLINATION":98.3533,"RA_OF_ASC_NODE":70.1176,"ARG_OF_PERICENTER":24.7094,"MEAN_ANOMALY":335.4303,"EPHEMERIS_TYPE":0,"CLASSIFICATION_TYPE":"U","NORAD_CAT_ID":39159,"ELEMENT_SET_NO":999,"REV_AT_EPOCH":66963,"BSTAR":6.6251e-5,"MEAN_MOTION_DOT":1.1e-6,"MEAN_MOTION_DDOT":0},{"OBJECT_NAME":"APRIZESAT 7","OBJECT_ID":"2013-066A","EPOCH":"2026-03-28T09:04:29.142048","MEAN_MOTION":14.91342967,"ECCENTRICITY":0.00373084,"INCLINATION":97.7627,"RA_OF_ASC_NODE":41.8107,"ARG_OF_PERICENTER":117.9955,"MEAN_ANOMALY":242.5047,"EPHEMERIS_TYPE":0,"CLASSIFICATION_TYPE":"U","NORAD_CAT_ID":39416,"ELEMENT_SET_NO":999,"REV_AT_EPOCH":66918,"BSTAR":0.00015764771,"MEAN_MOTION_DOT":1.535e-5,"MEAN_MOTION_DDOT":0},{"OBJECT_NAME":"APRIZESAT 8","OBJECT_ID":"2013-066K","EPOCH":"2026-03-28T10:09:18.165024","MEAN_MOTION":14.87472452,"ECCENTRICITY":0.00457174,"INCLINATION":97.8144,"RA_OF_ASC_NODE":36.0661,"ARG_OF_PERICENTER":189.9031,"MEAN_ANOMALY":170.1289,"EPHEMERIS_TYPE":0,"CLASSIFICATION_TYPE":"U","NORAD_CAT_ID":39425,"ELEMENT_SET_NO":999,"REV_AT_EPOCH":66766,"BSTAR":0.00013485046,"MEAN_MOTION_DOT":1.188e-5,"MEAN_MOTION_DDOT":0},{"OBJECT_NAME":"BUGSAT-1 (TITA)","OBJECT_ID":"2014-033E","EPOCH":"2026-03-28T14:22:26.115168","MEAN_MOTION":15.14741458,"ECCENTRICITY":0.00298009,"INCLINATION":98.0409,"RA_OF_ASC_NODE":175.4998,"ARG_OF_PERICENTER":96.1036,"MEAN_ANOMALY":264.3592,"EPHEMERIS_TYPE":0,"CLASSIFICATION_TYPE":"U","NORAD_CAT_ID":40014,"ELEMENT_SET_NO":999,"REV_AT_EPOCH":64363,"BSTAR":0.00049281509,"MEAN_MOTION_DOT":9.166e-5,"MEAN_MOTION_DDOT":0},{"OBJECT_NAME":"SAUDISAT 4","OBJECT_ID":"2014-033G","EPOCH":"2026-03-28T08:46:24.490272","MEAN_MOTION":14.79421495,"ECCENTRICITY":0.00442748,"INCLINATION":97.7452,"RA_OF_ASC_NODE":236.3539,"ARG_OF_PERICENTER":338.127,"MEAN_ANOMALY":21.8051,"EPHEMERIS_TYPE":0,"CLASSIFICATION_TYPE":"U","NORAD_CAT_ID":40016,"ELEMENT_SET_NO":999,"REV_AT_EPOCH":63412,"BSTAR":0.00011041606,"MEAN_MOTION_DOT":7.85e-6,"MEAN_MOTION_DDOT":0},{"OBJECT_NAME":"APRIZESAT 9","OBJECT_ID":"2014-033J","EPOCH":"2026-03-28T15:20:02.820192","MEAN_MOTION":14.74112734,"ECCENTRICITY":0.00676217,"INCLINATION":97.8921,"RA_OF_ASC_NODE":222.8695,"ARG_OF_PERICENTER":99.1991,"MEAN_ANOMALY":261.6875,"EPHEMERIS_TYPE":0,"CLASSIFICATION_TYPE":"U","NORAD_CAT_ID":40018,"ELEMENT_SET_NO":999,"REV_AT_EPOCH":63169,"BSTAR":0.00013858509,"MEAN_MOTION_DOT":8.95e-6,"MEAN_MOTION_DDOT":0},{"OBJECT_NAME":"APRIZESAT 10","OBJECT_ID":"2014-033K","EPOCH":"2026-03-28T13:55:34.112352","MEAN_MOTION":14.70787328,"ECCENTRICITY":0.00792372,"INCLINATION":97.9513,"RA_OF_ASC_NODE":216.4019,"ARG_OF_PERICENTER":170.2671,"MEAN_ANOMALY":190.0094,"EPHEMERIS_TYPE":0,"CLASSIFICATION_TYPE":"U","NORAD_CAT_ID":40019,"ELEMENT_SET_NO":999,"REV_AT_EPOCH":63040,"BSTAR":0.00015293385,"MEAN_MOTION_DOT":9.28e-6,"MEAN_MOTION_DDOT":0},{"OBJECT_NAME":"TECHDEMOSAT-1 (TDS-1)","OBJECT_ID":"2014-037H","EPOCH":"2026-03-28T12:30:49.398912","MEAN_MOTION":15.11944494,"ECCENTRICITY":0.0006614,"INCLINATION":98.3789,"RA_OF_ASC_NODE":71.8406,"ARG_OF_PERICENTER":165.2924,"MEAN_ANOMALY":194.8498,"EPHEMERIS_TYPE":0,"CLASSIFICATION_TYPE":"U","NORAD_CAT_ID":40076,"ELEMENT_SET_NO":999,"REV_AT_EPOCH":63603,"BSTAR":0.00060980871,"MEAN_MOTION_DOT":0.00010391,"MEAN_MOTION_DDOT":0}]
